{"type": "FeatureCollection", "features": [ {"type": "Feature", "properties": {"norad_id": 31497, "name": "FENGYUN 1C DEB", "group": "fengyun-1c-debris", "lat": -46.05424519161568, "lon": 134.15402792782845, "alt_km": 858.0272391404196, "timestamp": "2025-12-05T04:52:15.574278+00:00", "meta": {"OBJECT_NAME": "FENGYUN 1C DEB", "OBJECT_ID": "1999-025BWL", "EPOCH": "2025-12-03T05:08:39.245568", "MEAN_MOTION": 14.39191841, "ECCENTRICITY": 0.0168475, "INCLINATION": 98.3696, "RA_OF_ASC_NODE": 320.9979, "ARG_OF_PERICENTER": 11.741, "MEAN_ANOMALY": 358.9016, "EPHEMERIS_TYPE": 0, "CLASSIFICATION_TYPE": "U", "NORAD_CAT_ID": 31497, "ELEMENT_SET_NO": 999, "REV_AT_EPOCH": 97418, "BSTAR": 0.00041155, "MEAN_MOTION_DOT": 1.457e-05, "MEAN_MOTION_DDOT": 0}, "tle": {"line1": "1 31497U 99025BWL 25337.21434312  .00001457  00000+0  41155-3 0  9994", "line2": "2 31497  98.3696 320.9979 0168475  11.7410 358.9016 14.39191841974183"}}, "geometry": {"type": "Point", "coordinates": [134.15402792782845, -46.05424519161568]}}, {"type": "Feature", "properties": {"norad_id": 31498, "name": "FENGYUN 1C DEB", "group": "fengyun-1c-debris", "lat": 32.087093532956615, "lon": -53.99880710101899, "alt_km": 1078.921896270298, "timestamp": "2025-12-05T04:52:15.574287+00:00", "meta": {"OBJECT_NAME": "FENGYUN 1C DEB", "OBJECT_ID": "1999-025BWM", "EPOCH": "2025-11-30T09:36:20.130336", "MEAN_MOTION": 13.76941251, "ECCENTRICITY": 0.02170133, "INCLINATION": 98.4854, "RA_OF_ASC_NODE": 307.0815, "ARG_OF_PERICENTER": 178.1743, "MEAN_ANOMALY": 182.0252, "EPHEMERIS_TYPE": 0, "CLASSIFICATION_TYPE": "U", "NORAD_CAT_ID": 31498, "ELEMENT_SET_NO": 999, "REV_AT_EPOCH": 92564, "BSTAR": 0.0014956317, "MEAN_MOTION_DOT": 1.718e-05, "MEAN_MOTION_DDOT": 0}, "tle": {"line1": "1 31498U 99025BWM 25334.40023299  .00001718  00000+0  14956-2 0  9999", "line2": "2 31498  98.4854 307.0815 0217013 178.1743 182.0252 13.76941251925649"}}, "geometry": {"type": "Point", "coordinates": [-53.99880710101899, 32.087093532956615]}}, {"type": "Feature", "properties": {"norad_id": 31503, "name": "FENGYUN 1C DEB", "group": "fengyun-1c-debris", "lat": 27.105930622824, "lon": 29.450172483004906, "alt_km": 795.7058013625692, "timestamp": "2025-12-05T04:52:15.574296+00:00", "meta": {"OBJECT_NAME": "FENGYUN 1C DEB", "OBJECT_ID": "1999-025BWS", "EPOCH": "2025-12-02T20:26:52.467360", "MEAN_MOTION": 14.22519865, "ECCENTRICITY": 0.00492451, "INCLINATION": 100.0996, "RA_OF_ASC_NODE": 201.5254, "ARG_OF_PERICENTER": 214.863, "MEAN_ANOMALY": 144.9315, "EPHEMERIS_TYPE": 0, "CLASSIFICATION_TYPE": "U", "NORAD_CAT_ID": 31503, "ELEMENT_SET_NO": 999, "REV_AT_EPOCH": 64106, "BSTAR": 0.001356703, "MEAN_MOTION_DOT": 3.011e-05, "MEAN_MOTION_DDOT": 0}, "tle": {"line1": "1 31503U 99025BWS 25336.85199615  .00003011  00000+0  13567-2 0  9998", "line2": "2 31503 100.0996 201.5254 0049245 214.8630 144.9315 14.22519865641063"}}, "geometry": {"type": "Point", "coordinates": [29.450172483004906, 27.105930622824]}}, {"type": "Feature", "properties": {"norad_id": 31507, "name": "FENGYUN 1C DEB", "group": "fengyun-1c-debris", "lat": 30.59089033731766, "lon": -163.47905256805942, "alt_km": 660.2312668166878, "timestamp": "2025-12-05T04:52:15.574314+00:00", "meta": {"OBJECT_NAME": "FENGYUN 1C DEB", "OBJECT_ID": "1999-025BWW", "EPOCH": "2025-12-04T13:59:54.864096", "MEAN_MOTION": 14.52123729, "ECCENTRICITY": 0.0118043, "INCLINATION": 98.1945, "RA_OF_ASC_NODE": 11.0292, "ARG_OF_PERICENTER": 103.0861, "MEAN_ANOMALY": 47.2934, "EPHEMERIS_TYPE": 0, "CLASSIFICATION_TYPE": "U", "NORAD_CAT_ID": 31507, "ELEMENT_SET_NO": 999, "REV_AT_EPOCH": 97902, "BSTAR": 0.00090819, "MEAN_MOTION_DOT": 3.983e-05, "MEAN_MOTION_DDOT": 0}, "tle": {"line1": "1 31507U 99025BWW 25338.58327389  .00003983  00000+0  90819-3 0  9999", "line2": "2 31507  98.1945  11.0292 0118043 103.0861  47.2934 14.52123729979027"}}, "geometry": {"type": "Point", "coordinates": [-163.47905256805942, 30.59089033731766]}}, {"type": "Feature", "properties": {"norad_id": 31508, "name": "FENGYUN 1C DEB", "group": "fengyun-1c-debris", "lat": -81.3123546825074, "lon": 171.11127824591503, "alt_km": 689.2254251096656, "timestamp": "2025-12-05T04:52:15.574329+00:00", "meta": {"OBJECT_NAME": "FENGYUN 1C DEB", "OBJECT_ID": "1999-025BWX", "EPOCH": "2025-12-01T06:00:46.047744", "MEAN_MOTION": 14.62005114, "ECCENTRICITY": 0.0032762, "INCLINATION": 98.6301, "RA_OF_ASC_NODE": 83.3005, "ARG_OF_PERICENTER": 2.4168, "MEAN_ANOMALY": 357.7184, "EPHEMERIS_TYPE": 0, "CLASSIFICATION_TYPE": "U", "NORAD_CAT_ID": 31508, "ELEMENT_SET_NO": 999, "REV_AT_EPOCH": 96756, "BSTAR": 0.0032561, "MEAN_MOTION_DOT": 0.00016436, "MEAN_MOTION_DDOT": 0}, "tle": {"line1": "1 31508U 99025BWX 25335.25053296  .00016436  00000+0  32561-2 0  9990", "line2": "2 31508  98.6301  83.3005 0032762   2.4168 357.7184 14.62005114967568"}}, "geometry": {"type": "Point", "coordinates": [171.11127824591503, -81.3123546825074]}}, {"type": "Feature", "properties": {"norad_id": 31509, "name": "FENGYUN 1C DEB", "group": "fengyun-1c-debris", "lat": -11.508004519366398, "lon": 100.46591200157799, "alt_km": 963.2182876620864, "timestamp": "2025-12-05T04:52:15.574342+00:00", "meta": {"OBJECT_NAME": "FENGYUN 1C DEB", "OBJECT_ID": "1999-025BWY", "EPOCH": "2025-12-04T01:22:53.719680", "MEAN_MOTION": 13.94794808, "ECCENTRICITY": 0.02037519, "INCLINATION": 99.023, "RA_OF_ASC_NODE": 97.4915, "ARG_OF_PERICENTER": 241.9831, "MEAN_ANOMALY": 116.0587, "EPHEMERIS_TYPE": 0, "CLASSIFICATION_TYPE": "U", "NORAD_CAT_ID": 31509, "ELEMENT_SET_NO": 999, "REV_AT_EPOCH": 93841, "BSTAR": 0.0046048269, "MEAN_MOTION_DOT": 7.302e-05, "MEAN_MOTION_DDOT": 0}, "tle": {"line1": "1 31509U 99025BWY 25338.05756620  .00007302  00000+0  46048-2 0  9990", "line2": "2 31509  99.0230  97.4915 0203751 241.9831 116.0587 13.94794808938410"}}, "geometry": {"type": "Point", "coordinates": [100.46591200157799, -11.508004519366398]}}, {"type": "Feature", "properties": {"norad_id": 31510, "name": "FENGYUN 1C DEB", "group": "fengyun-1c-debris", "lat": 33.35687001197704, "lon": -27.085052336798167, "alt_km": 787.0501398771466, "timestamp": "2025-12-05T04:52:15.574355+00:00", "meta": {"OBJECT_NAME": "FENGYUN 1C DEB", "OBJECT_ID": "1999-025BWZ", "EPOCH": "2025-11-29T05:42:38.354688", "MEAN_MOTION": 14.24508373, "ECCENTRICITY": 0.00379271, "INCLINATION": 98.5532, "RA_OF_ASC_NODE": 332.7926, "ARG_OF_PERICENTER": 11.269, "MEAN_ANOMALY": 49.5902, "EPHEMERIS_TYPE": 0, "CLASSIFICATION_TYPE": "U", "NORAD_CAT_ID": 31510, "ELEMENT_SET_NO": 999, "REV_AT_EPOCH": 96295, "BSTAR": 0.00053902457, "MEAN_MOTION_DOT": 1.216e-05, "MEAN_MOTION_DDOT": 0}, "tle": {"line1": "1 31510U 99025BWZ 25333.23794392  .00001216  00000+0  53902-3 0  9991", "line2": "2 31510  98.5532 332.7926 0037927  11.2690  49.5902 14.24508373962950"}}, "geometry": {"type": "Point", "coordinates": [-27.085052336798167, 33.35687001197704]}}, {"type": "Feature", "properties": {"norad_id": 31511, "name": "FENGYUN 1C DEB", "group": "fengyun-1c-debris", "lat": -66.36408839537144, "lon": 168.96325274431757, "alt_km": 748.5076119699279, "timestamp": "2025-12-05T04:52:15.574369+00:00", "meta": {"OBJECT_NAME": "FENGYUN 1C DEB", "OBJECT_ID": "1999-025BXA", "EPOCH": "2025-12-03T17:52:23.242944", "MEAN_MOTION": 14.27964545, "ECCENTRICITY": 0.01097212, "INCLINATION": 99.0675, "RA_OF_ASC_NODE": 146.0482, "ARG_OF_PERICENTER": 252.3108, "MEAN_ANOMALY": 106.6069, "EPHEMERIS_TYPE": 0, "CLASSIFICATION_TYPE": "U", "NORAD_CAT_ID": 31511, "ELEMENT_SET_NO": 999, "REV_AT_EPOCH": 95672, "BSTAR": 0.0017735237, "MEAN_MOTION_DOT": 4.643e-05, "MEAN_MOTION_DDOT": 0}, "tle": {"line1": "1 31511U 99025BXA 25337.74471346  .00004643  00000+0  17735-2 0  9993", "line2": "2 31511  99.0675 146.0482 0109721 252.3108 106.6069 14.27964545956729"}}, "geometry": {"type": "Point", "coordinates": [168.96325274431757, -66.36408839537144]}}, {"type": "Feature", "properties": {"norad_id": 31512, "name": "FENGYUN 1C DEB", "group": "fengyun-1c-debris", "lat": 75.63232108198855, "lon": 91.55429781029665, "alt_km": 699.4012079050935, "timestamp": "2025-12-05T04:52:15.574382+00:00", "meta": {"OBJECT_NAME": "FENGYUN 1C DEB", "OBJECT_ID": "1999-025BXB", "EPOCH": "2025-12-02T23:15:31.890240", "MEAN_MOTION": 14.43767616, "ECCENTRICITY": 0.01438087, "INCLINATION": 98.8038, "RA_OF_ASC_NODE": 232.0142, "ARG_OF_PERICENTER": 176.1635, "MEAN_ANOMALY": 202.8474, "EPHEMERIS_TYPE": 0, "CLASSIFICATION_TYPE": "U", "NORAD_CAT_ID": 31512, "ELEMENT_SET_NO": 999, "REV_AT_EPOCH": 65361, "BSTAR": 0.00056358621, "MEAN_MOTION_DOT": 2.121e-05, "MEAN_MOTION_DDOT": 0}, "tle": {"line1": "1 31512U 99025BXB 25336.96911910  .00002121  00000+0  56359-3 0  9998", "line2": "2 31512  98.8038 232.0142 0143808 176.1635 202.8474 14.43767616653610"}}, "geometry": {"type": "Point", "coordinates": [91.55429781029665, 75.63232108198855]}}, {"type": "Feature", "properties": {"norad_id": 31513, "name": "FENGYUN 1C DEB", "group": "fengyun-1c-debris", "lat": -75.3864476229022, "lon": -140.99234929202328, "alt_km": 798.2167000286863, "timestamp": "2025-12-05T04:52:15.574396+00:00", "meta": {"OBJECT_NAME": "FENGYUN 1C DEB", "OBJECT_ID": "1999-025BXC", "EPOCH": "2025-11-25T02:15:23.832576", "MEAN_MOTION": 14.32315683, "ECCENTRICITY": 0.00282412, "INCLINATION": 98.8622, "RA_OF_ASC_NODE": 65.435, "ARG_OF_PERICENTER": 176.3464, "MEAN_ANOMALY": 183.7931, "EPHEMERIS_TYPE": 0, "CLASSIFICATION_TYPE": "U", "NORAD_CAT_ID": 31513, "ELEMENT_SET_NO": 999, "REV_AT_EPOCH": 72616, "BSTAR": 0.0023967664, "MEAN_MOTION_DOT": 6.459e-05, "MEAN_MOTION_DDOT": 0}, "tle": {"line1": "1 31513U 99025BXC 25329.09402584  .00006459  00000+0  23968-2 0  9994", "line2": "2 31513  98.8622  65.4350 0028241 176.3464 183.7931 14.32315683726161"}}, "geometry": {"type": "Point", "coordinates": [-140.99234929202328, -75.3864476229022]}}]}